STARLINK-4755           
1 53851U 22114AK  22278.58335648  .00238894  00000+0  16695-2 0  9997
2 53851  53.2150 176.9143 0001205 118.7375 342.5530 15.73046394  1309
STARLINK-4797           
1 53852U 22114AL  22278.58335648  .00016774  00000+0  12378-3 0  9994
2 53852  53.2153 176.9087 0001079 107.1863 357.5611 15.73182783  1302
STARLINK-4794           
1 53853U 22114AM  22278.58335648  .00015310  00000+0  11352-3 0  9991
2 53853  53.2161 176.9155 0001009 107.9850 354.4592 15.73153633  1301
STARLINK-4800           
1 53854U 22114AN  22278.58335648  .00237045  00000+0  16556-2 0  9993
2 53854  53.2156 176.9075 0001141 108.4142 357.6041 15.73065907  1304
STARLINK-4703           
1 53855U 22114AP  22278.58335648  .00253189  00000+0  17646-2 0  9992
2 53855  53.2145 176.9090 0001142 109.6600 353.3305 15.73066294  1309
STARLINK-4795           
1 53856U 22114AQ  22278.58335648  .00022014  00000+0  16136-3 0  9998
2 53856  53.2144 176.8972 0001159 113.8196 355.1956 15.73126180  1305
STARLINK-4809           
1 53857U 22114AR  22278.58335648 -.00010142  00000+0 -68199-4 0  9997
2 53857  53.2148 176.9080 0001398 110.1821 353.9096 15.73110018  1305
STARLINK-4798           
1 53858U 22114AS  22278.58335648  .00235090  00000+0  16418-2 0  9992
2 53858  53.2153 176.9050 0001034 111.1048 355.4791 15.73073984  1307
STARLINK-4790           
1 53859U 22114AT  22278.58335648  .00032766  00000+0  23753-3 0  9999
2 53859  53.2147 176.9047 0001214 105.8014 359.6052 15.73143962  1300
STARLINK-4799           
1 53860U 22114AU  22278.58335648  .00054088  00000+0  38854-3 0  9990
2 53860  53.2145 176.8986 0001201 105.9729   2.4361 15.73126256  1304
STARLINK-4781           
1 53861U 22114AV  22278.58335648  .00043869  00000+0  31653-3 0  9996
2 53861  53.2145 176.9008 0001183 103.9165   3.3236 15.73112791  1302
STARLINK-4792           
1 53862U 22114AW  22278.58335648  .00031514  00000+0  22847-3 0  9996
2 53862  53.2147 176.8977 0001150 100.0476   9.5384 15.73162904  1309
STARLINK-4788           
1 53863U 22114AX  22278.58335648 -.00008470  00000+0 -56084-4 0  9995
2 53863  53.2145 176.8992 0000967  90.0120  17.8095 15.73165837  1303
STARLINK-4779           
1 53864U 22114AY  22278.58335648 -.00015349  00000+0 -10542-3 0  9997
2 53864  53.2145 176.8941 0000992 103.9720   6.8440 15.73140420  1309
STARLINK-4785           
1 53865U 22114AZ  22278.58335648 -.00001006  00000+0 -27559-5 0  9991
2 53865  53.2147 176.8957 0001200 101.7521   8.4396 15.73164709  1301
STARLINK-4762           
1 53866U 22114BA  22278.58335648  .00031801  00000+0  23066-3 0  9993
2 53866  53.2144 176.8907 0001094 105.2876   7.2838 15.73147190  1300
STARLINK-4793           
1 53867U 22114BB  22278.58335648  .00007102  00000+0  55089-4 0  9992
2 53867  53.2162 176.8928 0001217 107.6683   3.7266 15.73150665  1300
STARLINK-4789           
1 53868U 22114BC  22278.58335648 -.00019794  00000+0 -13669-3 0  9992
2 53868  53.2156 176.8781 0001386 127.1775 353.8767 15.73243176  1302
STARLINK-4810           
1 53869U 22114BD  22278.58335648  .00238771  00000+0  16752-2 0  9994
2 53869  53.2149 176.8932 0000925 120.3535 351.3362 15.72954541  1308
STARLINK-4732           
1 53870U 22114BE  22278.58335648  .00245318  00000+0  17117-2 0  9997
2 53870  53.2147 176.8895 0001150 104.8372   8.9315 15.73063524  1309
STARLINK-4740           
1 53871U 22114BF  22278.58335648  .00018061  00000+0  13313-3 0  9996
2 53871  53.2147 176.8875 0001173 105.9037   8.4648 15.73145212  1302
FALCON 9 DEB            
1 53872U 22114BG  22278.11014084  .07904301  12200-4  60644-3 0  9991
2 53872  53.2075 176.1514 0015466 122.4842 237.7704 16.39084540  3697
FALCON 9 DEB            
1 53873U 22114BH  22278.10980133  .05698875  12131-4  72179-3 0  9991
2 53873  53.1982 176.1389 0018345 115.6633 244.6310 16.34552109  3691
FALCON 9 DEB            
1 53874U 22114BJ  22278.09735837  .06135988  12196-4  62149-3 0  9998
2 53874  53.2108 176.0555 0015337 110.6124 249.6570 16.36751579  3692
FALCON 9 DEB            
1 53875U 22114BK  22277.84558191  .07572429  12266-4  58518-3 0  9996
2 53875  53.2106 177.3208 0012697 108.8541 251.3885 16.39196920  3659
CHUANGXIN 16B (CX-16B)  
1 53876U 22102B   22278.64916879  .00007518  00000+0  71413-3 0  9996
2 53876  28.9984  89.0274 0004964 341.2174  18.8238 14.91870830  2379
YUNHAI-1 03             
1 53877U 22115A   22278.45316113  .00000311  00000+0  12991-3 0  9995
2 53877  98.4985 276.9027 0001488  89.5549 270.5816 14.32796242  2088
CZ-2D R/B               
1 53878U 22115B   22278.46541025  .00001045  00000+0  17212-3 0  9995
2 53878  98.5452 277.8312 0124248 357.9184   2.1486 14.67943553  2138
SOYUZ-MS 22             
1 53879U 22116A   22278.50664374  .00029692  00000+0  53062-3 0  9996
2 53879  51.6412 150.0266 0002910 259.5903 172.3733 15.49765110362295
2022-118A               
1 53884U 22118A   22278.52908823  .00005337  00000+0  23013-3 0  9999
2 53884  97.5210 285.0493 0013889 219.5667 239.6906 15.22906994  1610
2022-118B               
1 53885U 22118B   22278.52499494  .00006121  00000+0  25866-3 0  9999
2 53885  97.5211 285.0552 0010921 226.4364 234.8397 15.23559529  1602
STARLINK-5028           
1 53886U 22119A   22278.58335648 -.01220683  00000+0 -85964-2 0  9995
2 53886  53.2183 200.4591 0000937  48.2018 180.9230 15.76274343  1306
STARLINK-5029           
1 53887U 22119B   22278.58335648 -.01213136  00000+0 -85216-2 0  9991
2 53887  53.2182 200.4550 0001223  47.1841 183.5544 15.76310150  1306
STARLINK-5034           
1 53888U 22119C   22278.58335648 -.01035619  00000+0 -71695-2 0  9996
2 53888  53.2176 200.4570 0006478 269.1507 320.5816 15.76150485  2101
STARLINK-5031           
1 53889U 22119D   22278.58335648 -.01142827  00000+0 -79910-2 0  9995
2 53889  53.2183 200.4565 0001699  31.9542 198.2860 15.76240847  2109
STARLINK-5050           
1 53890U 22119E   22278.58335648  .00266792  37332-4  83120-3 0  9994
2 53890  53.2236 200.1061 0024863  90.1991 315.1942 15.90581850  2100
STARLINK-5041           
1 53891U 22119F   22278.58335648 -.01213346  00000+0 -85128-2 0  9991
2 53891  53.2182 200.4531 0001019  43.8684 187.9360 15.76339838  1309
STARLINK-5046           
1 53892U 22119G   22278.58335648 -.00978689  00000+0 -68309-2 0  9991
2 53892  53.2184 200.4482 0004830 267.5711 326.9386 15.76260620  2101
STARLINK-5052           
1 53893U 22119H   22278.58335648 -.01189970  00000+0 -83156-2 0  9997
2 53893  53.2182 200.4499 0001143 104.7513 128.6347 15.76372017  2102
STARLINK-5043           
1 53894U 22119J   22278.58335648 -.01214194  00000+0 -85124-2 0  9992
2 53894  53.2183 200.4528 0000934 351.5848 240.7359 15.76359481  1307
STARLINK-5032           
1 53895U 22119K   22278.58335648 -.01213711  00000+0 -84923-2 0  9993
2 53895  53.2183 200.4489 0000964 346.6299 247.2921 15.76402099  1303
STARLINK-5037           
1 53896U 22119L   22278.58335648 -.01183916  00000+0 -82224-2 0  9999
2 53896  53.2175 200.4461 0006530 266.7032 328.2463 15.76418848  2106
STARLINK-5035           
1 53897U 22119M   22278.58335648 -.01196417  00000+0 -83710-2 0  9991
2 53897  53.2182 200.4512 0001306 124.8570 108.0121 15.76357960  2101
STARLINK-5044           
1 53898U 22119N   22278.58335648 -.00982274  00000+0 -68499-2 0  9992
2 53898  53.2176 200.4433 0001727  24.1731 212.4141 15.76331137  2105
STARLINK-5042           
1 53899U 22119P   22278.58335648 -.01094452  00000+0 -75654-2 0  9997
2 53899  53.2182 200.4443 0001859 284.8833 311.1593 15.76383477  2100
STARLINK-5045           
1 53900U 22119Q   22278.58335648 -.01035844  00000+0 -71060-2 0  9997
2 53900  53.2180 200.4413 0004057 267.5314 330.0843 15.76392558  2101
STARLINK-5024           
1 53901U 22119R   22278.58335648 -.01217460  00000+0 -85002-2 0  9995
2 53901  53.2183 200.4465 0001075  59.0509 176.4191 15.76458192  1305
STARLINK-5021           
1 53902U 22119S   22278.58335648 -.01218102  00000+0 -84492-2 0  9992
2 53902  53.2184 200.4373 0001132  56.4051 183.7582 15.76605605  1300
STARLINK-5022           
1 53903U 22119T   22278.58335648 -.01218044  00000+0 -84878-2 0  9996
2 53903  53.2183 200.4432 0001231  50.6253 186.4403 15.76501362  1303
STARLINK-4787           
1 53904U 22119U   22278.58335648 -.01215708  00000+0 -84534-2 0  9990
2 53904  53.2182 200.4414 0001297  52.4703 185.5904 15.76542999  1302
STARLINK-5003           
1 53905U 22119V   22278.58335648 -.01219092  00000+0 -84615-2 0  9991
2 53905  53.2183 200.4378 0001170  61.6011 178.0269 15.76593217  1307
STARLINK-5054           
1 53906U 22119W   22278.58335648 -.01116569  00000+0 -76747-2 0  9994
2 53906  53.2180 200.4347 0001598  38.2262 203.0053 15.76564752  1305
STARLINK-5063           
1 53907U 22119X   22278.58335648 -.00980004  00000+0 -68118-2 0  9990
2 53907  53.2170 200.4389 0001671  33.1297 205.5278 15.76398648  2109
STARLINK-5057           
1 53908U 22119Y   22278.58335648 -.01214312  00000+0 -84025-2 0  9999
2 53908  53.2183 200.4344 0000919  49.4129 192.3048 15.76653009  1307
STARLINK-4796           
1 53909U 22119Z   22278.58335648 -.01172488  00000+0 -81150-2 0  9993
2 53909  53.2183 200.4391 0001528  33.3322 205.7927 15.76541996  1300
STARLINK-5056           
1 53910U 22119AA  22278.58335648 -.01215522  00000+0 -83941-2 0  9992
2 53910  53.2183 200.4310 0001068  59.0271 184.2625 15.76698976  1307
STARLINK-5048           
1 53911U 22119AB  22278.58335648 -.01211986  00000+0 -83960-2 0  9994
2 53911  53.2182 200.4358 0001049  63.1792 177.4907 15.76620547  1308
STARLINK-5059           
1 53912U 22119AC  22278.58335648 -.01126905  00000+0 -77354-2 0  9991
2 53912  53.2183 200.4323 0001476  40.0200 202.7686 15.76620116  2101
STARLINK-5053           
1 53913U 22119AD  22278.58335648 -.01220158  00000+0 -84157-2 0  9996
2 53913  53.2183 200.4287 0001088  51.2212 193.0896 15.76737479  1304
